[
  {
    "OBJECT_NAME": "STARLINK-5558",
    "OBJECT_ID": "23021D",
    "EPOCH": "2025-11-10T19:28:17.851008",
    "MEAN_MOTION": 14.98331411,
    "ECCENTRICITY": 0.0002613,
    "INCLINATION": 69.9986,
    "RA_OF_ASC_NODE": 144.0976,
    "ARG_OF_PERICENTER": 269.9604,
    "MEAN_ANOMALY": 90.1256,
    "EPHEMERIS_TYPE": 0,
    "CLASSIFICATION_TYPE": "U",
    "NORAD_CAT_ID": 55631,
    "ELEMENT_SET_NO": 999,
    "REV_AT_EPOCH": 15049,
    "BSTAR": 3.001e-05,
    "MEAN_MOTION_DOT": 2.65e-06,
    "MEAN_MOTION_DDOT": 0.0,
    "TLE_LINE1": "1 55631U 23021D   25314.81131772  .00000265  00000+0  30010-4 0  9993",
    "TLE_LINE2": "2 55631  69.9986 144.0976 0002613 269.9604  90.1256 14.98331411150495",
    "COMMENT": "Grouped by shell and plane from TLE"
  },
  {
    "OBJECT_NAME": "STARLINK-5546",
    "OBJECT_ID": "23021E",
    "EPOCH": "2025-11-11T05:29:09.128832",
    "MEAN_MOTION": 14.98346766,
    "ECCENTRICITY": 0.0002463,
    "INCLINATION": 69.9974,
    "RA_OF_ASC_NODE": 143.1476,
    "ARG_OF_PERICENTER": 260.3544,
    "MEAN_ANOMALY": 99.7337,
    "EPHEMERIS_TYPE": 0,
    "CLASSIFICATION_TYPE": "U",
    "NORAD_CAT_ID": 55632,
    "ELEMENT_SET_NO": 999,
    "REV_AT_EPOCH": 15055,
    "BSTAR": 0.00013874000000000002,
    "MEAN_MOTION_DOT": 1.564e-05,
    "MEAN_MOTION_DDOT": 0.0,
    "TLE_LINE1": "1 55632U 23021E   25315.22857788  .00001564  00000+0  13874-3 0  9993",
    "TLE_LINE2": "2 55632  69.9974 143.1476 0002463 260.3544  99.7337 14.98346766150550",
    "COMMENT": "Grouped by shell and plane from TLE"
  },
  {
    "OBJECT_NAME": "STARLINK-5498",
    "OBJECT_ID": "23021F",
    "EPOCH": "2025-11-11T05:23:07.746144",
    "MEAN_MOTION": 14.98336459,
    "ECCENTRICITY": 0.0003062,
    "INCLINATION": 69.9968,
    "RA_OF_ASC_NODE": 143.1326,
    "ARG_OF_PERICENTER": 269.6994,
    "MEAN_ANOMALY": 90.3814,
    "EPHEMERIS_TYPE": 0,
    "CLASSIFICATION_TYPE": "U",
    "NORAD_CAT_ID": 55633,
    "ELEMENT_SET_NO": 999,
    "REV_AT_EPOCH": 15055,
    "BSTAR": 3.2198e-05,
    "MEAN_MOTION_DOT": 2.91e-06,
    "MEAN_MOTION_DDOT": 0.0,
    "TLE_LINE1": "1 55633U 23021F   25315.22439521  .00000291  00000+0  32198-4 0  9992",
    "TLE_LINE2": "2 55633  69.9968 143.1326 0003062 269.6994  90.3814 14.98336459150550",
    "COMMENT": "Grouped by shell and plane from TLE"
  },
  {
    "OBJECT_NAME": "STARLINK-5500",
    "OBJECT_ID": "23021G",
    "EPOCH": "2025-11-11T05:29:22.738560",
    "MEAN_MOTION": 14.98335614,
    "ECCENTRICITY": 0.000279,
    "INCLINATION": 69.9974,
    "RA_OF_ASC_NODE": 143.1492,
    "ARG_OF_PERICENTER": 270.4037,
    "MEAN_ANOMALY": 89.6802,
    "EPHEMERIS_TYPE": 0,
    "CLASSIFICATION_TYPE": "U",
    "NORAD_CAT_ID": 55634,
    "ELEMENT_SET_NO": 999,
    "REV_AT_EPOCH": 15055,
    "BSTAR": 6.5907e-05,
    "MEAN_MOTION_DOT": 6.94e-06,
    "MEAN_MOTION_DDOT": 0.0,
    "TLE_LINE1": "1 55634U 23021G   25315.22873540  .00000694  00000+0  65907-4 0  9997",
    "TLE_LINE2": "2 55634  69.9974 143.1492 0002790 270.4037  89.6802 14.98335614150557",
    "COMMENT": "Grouped by shell and plane from TLE"
  },
  {
    "OBJECT_NAME": "STARLINK-5218",
    "OBJECT_ID": "23021J",
    "EPOCH": "2025-11-10T22:46:34.297248",
    "MEAN_MOTION": 14.98334752,
    "ECCENTRICITY": 0.0003002,
    "INCLINATION": 69.9961,
    "RA_OF_ASC_NODE": 143.7764,
    "ARG_OF_PERICENTER": 270.1234,
    "MEAN_ANOMALY": 89.9581,
    "EPHEMERIS_TYPE": 0,
    "CLASSIFICATION_TYPE": "U",
    "NORAD_CAT_ID": 55636,
    "ELEMENT_SET_NO": 999,
    "REV_AT_EPOCH": 15051,
    "BSTAR": 3.6742e-05,
    "MEAN_MOTION_DOT": 3.45e-06,
    "MEAN_MOTION_DDOT": 0.0,
    "TLE_LINE1": "1 55636U 23021J   25314.94900807  .00000345  00000+0  36742-4 0  9992",
    "TLE_LINE2": "2 55636  69.9961 143.7764 0003002 270.1234  89.9581 14.98334752150511",
    "COMMENT": "Grouped by shell and plane from TLE"
  },
  {
    "OBJECT_NAME": "STARLINK-5507",
    "OBJECT_ID": "23021L",
    "EPOCH": "2025-11-10T21:16:27.004224",
    "MEAN_MOTION": 14.98333501,
    "ECCENTRICITY": 0.0003286,
    "INCLINATION": 69.9971,
    "RA_OF_ASC_NODE": 143.96,
    "ARG_OF_PERICENTER": 258.1595,
    "MEAN_ANOMALY": 101.9196,
    "EPHEMERIS_TYPE": 0,
    "CLASSIFICATION_TYPE": "U",
    "NORAD_CAT_ID": 55638,
    "ELEMENT_SET_NO": 999,
    "REV_AT_EPOCH": 15050,
    "BSTAR": 1.0837e-06,
    "MEAN_MOTION_DOT": -8e-07,
    "MEAN_MOTION_DDOT": 0.0,
    "TLE_LINE1": "1 55638U 23021L   25314.88642366 -.00000080  00000+0  10837-5 0  9995",
    "TLE_LINE2": "2 55638  69.9971 143.9600 0003286 258.1595 101.9196 14.98333501150502",
    "COMMENT": "Grouped by shell and plane from TLE"
  },
  {
    "OBJECT_NAME": "STARLINK-5817",
    "OBJECT_ID": "23028AQ",
    "EPOCH": "2025-11-10T22:34:32.743200",
    "MEAN_MOTION": 14.98334268,
    "ECCENTRICITY": 0.0002952,
    "INCLINATION": 69.9979,
    "RA_OF_ASC_NODE": 143.6642,
    "ARG_OF_PERICENTER": 269.8886,
    "MEAN_ANOMALY": 90.1935,
    "EPHEMERIS_TYPE": 0,
    "CLASSIFICATION_TYPE": "U",
    "NORAD_CAT_ID": 55779,
    "ELEMENT_SET_NO": 999,
    "REV_AT_EPOCH": 14924,
    "BSTAR": 8.057100000000001e-05,
    "MEAN_MOTION_DOT": 8.69e-06,
    "MEAN_MOTION_DDOT": 0.0,
    "TLE_LINE1": "1 55779U 23028AQ  25314.94065675  .00000869  00000+0  80571-4 0  9992",
    "TLE_LINE2": "2 55779  69.9979 143.6642 0002952 269.8886  90.1935 14.98334268149240",
    "COMMENT": "Grouped by shell and plane from TLE"
  },
  {
    "OBJECT_NAME": "STARLINK-5826",
    "OBJECT_ID": "23028AT",
    "EPOCH": "2025-11-11T06:29:28.805856",
    "MEAN_MOTION": 14.98334814,
    "ECCENTRICITY": 0.0002967,
    "INCLINATION": 69.9969,
    "RA_OF_ASC_NODE": 143.214,
    "ARG_OF_PERICENTER": 270.4405,
    "MEAN_ANOMALY": 89.6413,
    "EPHEMERIS_TYPE": 0,
    "CLASSIFICATION_TYPE": "U",
    "NORAD_CAT_ID": 55782,
    "ELEMENT_SET_NO": 999,
    "REV_AT_EPOCH": 14928,
    "BSTAR": 4.4969e-05,
    "MEAN_MOTION_DOT": 4.44e-06,
    "MEAN_MOTION_DDOT": 0.0,
    "TLE_LINE1": "1 55782U 23028AT  25315.27047229  .00000444  00000+0  44969-4 0  9998",
    "TLE_LINE2": "2 55782  69.9969 143.2140 0002967 270.4405  89.6413 14.98334814149288",
    "COMMENT": "Grouped by shell and plane from TLE"
  },
  {
    "OBJECT_NAME": "STARLINK-5825",
    "OBJECT_ID": "23028AU",
    "EPOCH": "2025-11-11T06:29:15.393120",
    "MEAN_MOTION": 14.98321587,
    "ECCENTRICITY": 0.0002955,
    "INCLINATION": 69.9975,
    "RA_OF_ASC_NODE": 143.2127,
    "ARG_OF_PERICENTER": 269.0182,
    "MEAN_ANOMALY": 91.0638,
    "EPHEMERIS_TYPE": 0,
    "CLASSIFICATION_TYPE": "U",
    "NORAD_CAT_ID": 55783,
    "ELEMENT_SET_NO": 999,
    "REV_AT_EPOCH": 14928,
    "BSTAR": 9.2818e-05,
    "MEAN_MOTION_DOT": 1.014e-05,
    "MEAN_MOTION_DDOT": 0.0,
    "TLE_LINE1": "1 55783U 23028AU  25315.27031705  .00001014  00000+0  92818-4 0  9991",
    "TLE_LINE2": "2 55783  69.9975 143.2127 0002955 269.0182  91.0638 14.98321587149283",
    "COMMENT": "Grouped by shell and plane from TLE"
  },
  {
    "OBJECT_NAME": "STARLINK-5797",
    "OBJECT_ID": "23028AV",
    "EPOCH": "2025-11-11T06:05:26.438208",
    "MEAN_MOTION": 14.98330995,
    "ECCENTRICITY": 0.0002916,
    "INCLINATION": 70.0002,
    "RA_OF_ASC_NODE": 143.1561,
    "ARG_OF_PERICENTER": 270.3401,
    "MEAN_ANOMALY": 89.7424,
    "EPHEMERIS_TYPE": 0,
    "CLASSIFICATION_TYPE": "U",
    "NORAD_CAT_ID": 55784,
    "ELEMENT_SET_NO": 999,
    "REV_AT_EPOCH": 14928,
    "BSTAR": 2.8971000000000004e-05,
    "MEAN_MOTION_DOT": 2.53e-06,
    "MEAN_MOTION_DDOT": 0.0,
    "TLE_LINE1": "1 55784U 23028AV  25315.25377822  .00000253  00000+0  28971-4 0  9996",
    "TLE_LINE2": "2 55784  70.0002 143.1561 0002916 270.3401  89.7424 14.98330995149285",
    "COMMENT": "Grouped by shell and plane from TLE"
  },
  {
    "OBJECT_NAME": "STARLINK-5818",
    "OBJECT_ID": "23028AW",
    "EPOCH": "2025-11-11T06:23:13.970688",
    "MEAN_MOTION": 14.98333026,
    "ECCENTRICITY": 0.0003065,
    "INCLINATION": 69.999,
    "RA_OF_ASC_NODE": 143.1977,
    "ARG_OF_PERICENTER": 270.4552,
    "MEAN_ANOMALY": 89.6256,
    "EPHEMERIS_TYPE": 0,
    "CLASSIFICATION_TYPE": "U",
    "NORAD_CAT_ID": 55785,
    "ELEMENT_SET_NO": 999,
    "REV_AT_EPOCH": 14928,
    "BSTAR": 2.0048e-05,
    "MEAN_MOTION_DOT": 1.46e-06,
    "MEAN_MOTION_DDOT": 0.0,
    "TLE_LINE1": "1 55785U 23028AW  25315.26613392  .00000146  00000+0  20048-4 0  9991",
    "TLE_LINE2": "2 55785  69.9990 143.1977 0003065 270.4552  89.6256 14.98333026149284",
    "COMMENT": "Grouped by shell and plane from TLE"
  },
  {
    "OBJECT_NAME": "STARLINK-5823",
    "OBJECT_ID": "23028AX",
    "EPOCH": "2025-11-11T06:05:12.266016",
    "MEAN_MOTION": 14.98332396,
    "ECCENTRICITY": 0.0002927,
    "INCLINATION": 69.9985,
    "RA_OF_ASC_NODE": 143.1548,
    "ARG_OF_PERICENTER": 269.906,
    "MEAN_ANOMALY": 90.1764,
    "EPHEMERIS_TYPE": 0,
    "CLASSIFICATION_TYPE": "U",
    "NORAD_CAT_ID": 55786,
    "ELEMENT_SET_NO": 999,
    "REV_AT_EPOCH": 14928,
    "BSTAR": 2.7599e-05,
    "MEAN_MOTION_DOT": 2.36e-06,
    "MEAN_MOTION_DDOT": 0.0,
    "TLE_LINE1": "1 55786U 23028AX  25315.25361419  .00000236  00000+0  27599-4 0  9999",
    "TLE_LINE2": "2 55786  69.9985 143.1548 0002927 269.9060  90.1764 14.98332396149286",
    "COMMENT": "Grouped by shell and plane from TLE"
  },
  {
    "OBJECT_NAME": "STARLINK-5811",
    "OBJECT_ID": "23028AY",
    "EPOCH": "2025-11-10T23:52:41.021472",
    "MEAN_MOTION": 14.9832786,
    "ECCENTRICITY": 0.0003099,
    "INCLINATION": 69.9985,
    "RA_OF_ASC_NODE": 143.8571,
    "ARG_OF_PERICENTER": 267.7676,
    "MEAN_ANOMALY": 92.3128,
    "EPHEMERIS_TYPE": 0,
    "CLASSIFICATION_TYPE": "U",
    "NORAD_CAT_ID": 55787,
    "ELEMENT_SET_NO": 999,
    "REV_AT_EPOCH": 14924,
    "BSTAR": 0.0,
    "MEAN_MOTION_DOT": -4.28e-06,
    "MEAN_MOTION_DDOT": 0.0,
    "TLE_LINE1": "1 55787U 23028AY  25314.99491923 -.00000428  00000+0 -28071-4 0  9995",
    "TLE_LINE2": "2 55787  69.9985 143.8571 0003099 267.7676  92.3128 14.98327860149244",
    "COMMENT": "Grouped by shell and plane from TLE"
  }
]